{"type": "FeatureCollection", "features": [ {"type": "Feature", "properties": {"norad_id": 62339, "name": "GPS BIII-7  (PRN 01)", "group": "gps-ops", "lat": 50.85286309382837, "lon": 40.978348895124796, "alt_km": 20172.98302803157, "timestamp": "2025-12-22T22:44:21.234475+00:00", "meta": {"OBJECT_NAME": "GPS BIII-7  (PRN 01)", "OBJECT_ID": "2024-242A", "EPOCH": "2025-12-22T12:02:33.556992", "MEAN_MOTION": 2.00568132, "ECCENTRICITY": 0.00128077, "INCLINATION": 54.9208, "RA_OF_ASC_NODE": 341.3454, "ARG_OF_PERICENTER": 346.2078, "MEAN_ANOMALY": 123.2241, "EPHEMERIS_TYPE": 0, "CLASSIFICATION_TYPE": "U", "NORAD_CAT_ID": 62339, "ELEMENT_SET_NO": 999, "REV_AT_EPOCH": 771, "BSTAR": 0, "MEAN_MOTION_DOT": -6.9e-07, "MEAN_MOTION_DDOT": 0}, "tle": {"line1": "1 62339U 24242A   25356.50177728 -.00000069  00000+0  00000+0 0  9999", "line2": "2 62339  54.9208 341.3454 0012807 346.2078 123.2241  2.00568132  7712"}}, "geometry": {"type": "Point", "coordinates": [40.978348895124796, 50.85286309382837]}}, {"type": "Feature", "properties": {"norad_id": 64202, "name": "GPS BIII-8  (PRN 21)", "group": "gps-ops", "lat": -53.94871712578826, "lon": -68.41130508129253, "alt_km": 20178.508851604216, "timestamp": "2025-12-22T22:44:21.234487+00:00", "meta": {"OBJECT_NAME": "GPS BIII-8  (PRN 21)", "OBJECT_ID": "2025-116A", "EPOCH": "2025-12-21T15:32:25.982016", "MEAN_MOTION": 2.00557819, "ECCENTRICITY": 0.0005846, "INCLINATION": 55.1118, "RA_OF_ASC_NODE": 38.2817, "ARG_OF_PERICENTER": 310.1313, "MEAN_ANOMALY": 91.6448, "EPHEMERIS_TYPE": 0, "CLASSIFICATION_TYPE": "U", "NORAD_CAT_ID": 64202, "ELEMENT_SET_NO": 999, "REV_AT_EPOCH": 431, "BSTAR": 0, "MEAN_MOTION_DOT": -5.4e-07, "MEAN_MOTION_DDOT": 0}, "tle": {"line1": "1 64202U 25116A   25355.64752294 -.00000054  00000+0  00000+0 0  9996", "line2": "2 64202  55.1118  38.2817 0005846 310.1313  91.6448  2.00557819  4318"}}, "geometry": {"type": "Point", "coordinates": [-68.41130508129253, -53.94871712578826]}}]}